[{"OBJECT_NAME":"DELTA 2 R/B","OBJECT_ID":"1999-041E","EPOCH":"2026-03-03T01:41:23.443872","MEAN_MOTION":14.11813362,"ECCENTRICITY":0.0502356,"INCLINATION":51.7651,"RA_OF_ASC_NODE":327.7179,"ARG_OF_PERICENTER":328.8923,"MEAN_ANOMALY":28.3138,"EPHEMERIS_TYPE":0,"CLASSIFICATION_TYPE":"U","NORAD_CAT_ID":25876,"ELEMENT_SET_NO":999,"REV_AT_EPOCH":36209,"BSTAR":0.00031034,"MEAN_MOTION_DOT":1.695e-5,"MEAN_MOTION_DDOT":0},{"OBJECT_NAME":"HELIOS 1B","OBJECT_ID":"1999-064A","EPOCH":"2026-03-03T07:46:50.560320","MEAN_MOTION":14.87665755,"ECCENTRICITY":0.0002509,"INCLINATION":98.1704,"RA_OF_ASC_NODE":324.3803,"ARG_OF_PERICENTER":83.6747,"MEAN_ANOMALY":276.4754,"EPHEMERIS_TYPE":0,"CLASSIFICATION_TYPE":"U","NORAD_CAT_ID":25977,"ELEMENT_SET_NO":999,"REV_AT_EPOCH":68431,"BSTAR":0.0002788,"MEAN_MOTION_DOT":2.479e-5,"MEAN_MOTION_DDOT":0},{"OBJECT_NAME":"TERRA","OBJECT_ID":"1999-068A","EPOCH":"2026-03-03T09:55:46.155360","MEAN_MOTION":14.610068,"ECCENTRICITY":0.0002276,"INCLINATION":97.9607,"RA_OF_ASC_NODE":116.0879,"ARG_OF_PERICENTER":166.8432,"MEAN_ANOMALY":250.4104,"EPHEMERIS_TYPE":0,"CLASSIFICATION_TYPE":"U","NORAD_CAT_ID":25994,"ELEMENT_SET_NO":999,"REV_AT_EPOCH":39416,"BSTAR":0.00012285,"MEAN_MOTION_DOT":5.58e-6,"MEAN_MOTION_DDOT":0},{"OBJECT_NAME":"SL-16 R/B","OBJECT_ID":"2000-006B","EPOCH":"2026-03-03T10:36:20.036448","MEAN_MOTION":14.15824391,"ECCENTRICITY":0.001722,"INCLINATION":71.0014,"RA_OF_ASC_NODE":110.9753,"ARG_OF_PERICENTER":198.826,"MEAN_ANOMALY":161.2228,"EPHEMERIS_TYPE":0,"CLASSIFICATION_TYPE":"U","NORAD_CAT_ID":26070,"ELEMENT_SET_NO":999,"REV_AT_EPOCH":34767,"BSTAR":0.00014411,"MEAN_MOTION_DOT":2.36e-6,"MEAN_MOTION_DDOT":0},{"OBJECT_NAME":"TITAN 4B R/B","OBJECT_ID":"2000-047B","EPOCH":"2026-03-03T11:14:08.407968","MEAN_MOTION":15.09488579,"ECCENTRICITY":0.003799,"INCLINATION":67.9883,"RA_OF_ASC_NODE":58.0038,"ARG_OF_PERICENTER":42.7873,"MEAN_ANOMALY":317.6222,"EPHEMERIS_TYPE":0,"CLASSIFICATION_TYPE":"U","NORAD_CAT_ID":26474,"ELEMENT_SET_NO":999,"REV_AT_EPOCH":39197,"BSTAR":0.00032463,"MEAN_MOTION_DOT":5.169e-5,"MEAN_MOTION_DDOT":0},{"OBJECT_NAME":"ENVISAT","OBJECT_ID":"2002-009A","EPOCH":"2026-03-03T12:04:40.176192","MEAN_MOTION":14.39034205,"ECCENTRICITY":0.0001336,"INCLINATION":98.3718,"RA_OF_ASC_NODE":16.2483,"ARG_OF_PERICENTER":84.6822,"MEAN_ANOMALY":28.1006,"EPHEMERIS_TYPE":0,"CLASSIFICATION_TYPE":"U","NORAD_CAT_ID":27386,"ELEMENT_SET_NO":999,"REV_AT_EPOCH":25828,"BSTAR":6.8346e-5,"MEAN_MOTION_DOT":1.68e-6,"MEAN_MOTION_DDOT":0},{"OBJECT_NAME":"IDEFIX & ARIANE 42P R/B","OBJECT_ID":"2002-021B","EPOCH":"2026-03-03T09:54:27.268704","MEAN_MOTION":14.31020865,"ECCENTRICITY":0.0011217,"INCLINATION":98.5864,"RA_OF_ASC_NODE":1.0943,"ARG_OF_PERICENTER":201.244,"MEAN_ANOMALY":158.8279,"EPHEMERIS_TYPE":0,"CLASSIFICATION_TYPE":"U","NORAD_CAT_ID":27422,"ELEMENT_SET_NO":999,"REV_AT_EPOCH":24312,"BSTAR":0.00015662,"MEAN_MOTION_DOT":3.69e-6,"MEAN_MOTION_DDOT":0},{"OBJECT_NAME":"AQUA","OBJECT_ID":"2002-022A","EPOCH":"2026-03-03T12:49:48.117216","MEAN_MOTION":14.61958757,"ECCENTRICITY":6.67e-5,"INCLINATION":98.4164,"RA_OF_ASC_NODE":29.7879,"ARG_OF_PERICENTER":58.5213,"MEAN_ANOMALY":53.8752,"EPHEMERIS_TYPE":0,"CLASSIFICATION_TYPE":"U","NORAD_CAT_ID":27424,"ELEMENT_SET_NO":999,"REV_AT_EPOCH":26783,"BSTAR":0.0002769,"MEAN_MOTION_DOT":1.338e-5,"MEAN_MOTION_DDOT":0},{"OBJECT_NAME":"CZ-4B R/B","OBJECT_ID":"2002-024C","EPOCH":"2026-03-03T03:10:53.554656","MEAN_MOTION":14.14546187,"ECCENTRICITY":0.005077,"INCLINATION":98.8853,"RA_OF_ASC_NODE":115.5719,"ARG_OF_PERICENTER":42.637,"MEAN_ANOMALY":336.7091,"EPHEMERIS_TYPE":0,"CLASSIFICATION_TYPE":"U","NORAD_CAT_ID":27432,"ELEMENT_SET_NO":999,"REV_AT_EPOCH":22831,"BSTAR":5.0918e-5,"MEAN_MOTION_DOT":5.5e-7,"MEAN_MOTION_DDOT":0},{"OBJECT_NAME":"MIDORI II (ADEOS-II)","OBJECT_ID":"2002-056A","EPOCH":"2026-03-03T12:04:42.292128","MEAN_MOTION":14.29279329,"ECCENTRICITY":0.0001812,"INCLINATION":98.7759,"RA_OF_ASC_NODE":20.9386,"ARG_OF_PERICENTER":51.7611,"MEAN_ANOMALY":308.3733,"EPHEMERIS_TYPE":0,"CLASSIFICATION_TYPE":"U","NORAD_CAT_ID":27597,"ELEMENT_SET_NO":999,"REV_AT_EPOCH":20941,"BSTAR":0.00016951,"MEAN_MOTION_DOT":3.86e-6,"MEAN_MOTION_DDOT":0},{"OBJECT_NAME":"H-2A R/B","OBJECT_ID":"2002-056E","EPOCH":"2026-03-03T12:09:33.727104","MEAN_MOTION":14.33755888,"ECCENTRICITY":0.0070114,"INCLINATION":98.3191,"RA_OF_ASC_NODE":23.108,"ARG_OF_PERICENTER":179.0469,"MEAN_ANOMALY":295.499,"EPHEMERIS_TYPE":0,"CLASSIFICATION_TYPE":"U","NORAD_CAT_ID":27601,"ELEMENT_SET_NO":999,"REV_AT_EPOCH":21322,"BSTAR":0.00013532,"MEAN_MOTION_DOT":3.45e-6,"MEAN_MOTION_DDOT":0},{"OBJECT_NAME":"CZ-4B R/B","OBJECT_ID":"2003-049C","EPOCH":"2026-03-03T11:16:02.599392","MEAN_MOTION":14.55013052,"ECCENTRICITY":0.0047052,"INCLINATION":98.6873,"RA_OF_ASC_NODE":57.1305,"ARG_OF_PERICENTER":250.2914,"MEAN_ANOMALY":109.3202,"EPHEMERIS_TYPE":0,"CLASSIFICATION_TYPE":"U","NORAD_CAT_ID":28059,"ELEMENT_SET_NO":999,"REV_AT_EPOCH":18569,"BSTAR":0.00013577,"MEAN_MOTION_DOT":5.41e-6,"MEAN_MOTION_DDOT":0},{"OBJECT_NAME":"CZ-2C R/B","OBJECT_ID":"2004-012C","EPOCH":"2026-03-03T03:32:07.369728","MEAN_MOTION":15.63617877,"ECCENTRICITY":0.0013304,"INCLINATION":97.7247,"RA_OF_ASC_NODE":126.8234,"ARG_OF_PERICENTER":336.0543,"MEAN_ANOMALY":24.0094,"EPHEMERIS_TYPE":0,"CLASSIFICATION_TYPE":"U","NORAD_CAT_ID":28222,"ELEMENT_SET_NO":999,"REV_AT_EPOCH":20325,"BSTAR":0.0006313,"MEAN_MOTION_DOT":0.00059078,"MEAN_MOTION_DDOT":0},{"OBJECT_NAME":"SL-16 R/B","OBJECT_ID":"2004-021B","EPOCH":"2026-03-03T12:24:42.847776","MEAN_MOTION":14.14599678,"ECCENTRICITY":0.0003725,"INCLINATION":70.9992,"RA_OF_ASC_NODE":245.4467,"ARG_OF_PERICENTER":21.9889,"MEAN_ANOMALY":338.1393,"EPHEMERIS_TYPE":0,"CLASSIFICATION_TYPE":"U","NORAD_CAT_ID":28353,"ELEMENT_SET_NO":999,"REV_AT_EPOCH":12196,"BSTAR":-3.8549e-5,"MEAN_MOTION_DOT":-1.22e-6,"MEAN_MOTION_DDOT":0},{"OBJECT_NAME":"CZ-4B R/B","OBJECT_ID":"2004-035C","EPOCH":"2026-03-03T02:28:20.240256","MEAN_MOTION":15.28920351,"ECCENTRICITY":0.0031819,"INCLINATION":97.3507,"RA_OF_ASC_NODE":96.4247,"ARG_OF_PERICENTER":355.3873,"MEAN_ANOMALY":4.7069,"EPHEMERIS_TYPE":0,"CLASSIFICATION_TYPE":"U","NORAD_CAT_ID":28415,"ELEMENT_SET_NO":999,"REV_AT_EPOCH":17890,"BSTAR":0.00035853,"MEAN_MOTION_DOT":0.00010152,"MEAN_MOTION_DDOT":0},{"OBJECT_NAME":"CZ-2C R/B","OBJECT_ID":"2004-046B","EPOCH":"2026-03-03T09:14:43.034784","MEAN_MOTION":14.26989701,"ECCENTRICITY":0.0139498,"INCLINATION":98.1987,"RA_OF_ASC_NODE":337.7613,"ARG_OF_PERICENTER":173.0405,"MEAN_ANOMALY":187.2758,"EPHEMERIS_TYPE":0,"CLASSIFICATION_TYPE":"U","NORAD_CAT_ID":28480,"ELEMENT_SET_NO":999,"REV_AT_EPOCH":10760,"BSTAR":7.3073e-5,"MEAN_MOTION_DOT":1.56e-6,"MEAN_MOTION_DDOT":0},{"OBJECT_NAME":"ARIANE 5 R/B","OBJECT_ID":"2004-049H","EPOCH":"2026-03-03T10:26:03.748704","MEAN_MOTION":14.85252013,"ECCENTRICITY":0.0084395,"INCLINATION":98.2616,"RA_OF_ASC_NODE":230.658,"ARG_OF_PERICENTER":12.1868,"MEAN_ANOMALY":348.1361,"EPHEMERIS_TYPE":0,"CLASSIFICATION_TYPE":"U","NORAD_CAT_ID":28499,"ELEMENT_SET_NO":999,"REV_AT_EPOCH":14486,"BSTAR":0.00012046,"MEAN_MOTION_DOT":1.037e-5,"MEAN_MOTION_DDOT":0}]
