DELTA 2 R/B             
1 25876U 99041E   26062.07041023  .00001695  00000+0  31034-3 0  9998
2 25876  51.7651 327.7179 0502356 328.8923  28.3138 14.11813362362092
HELIOS 1B               
1 25977U 99064A   26062.32419630  .00002479  00000+0  27880-3 0  9991
2 25977  98.1704 324.3803 0002509  83.6747 276.4754 14.87665755684316
TERRA                   
1 25994U 99068A   26062.41372865  .00000558  00000+0  12285-3 0  9991
2 25994  97.9607 116.0879 0002276 166.8432 250.4104 14.61006800394163
SL-16 R/B               
1 26070U 00006B   26062.44189857  .00000236  00000+0  14411-3 0  9997
2 26070  71.0014 110.9753 0017220 198.8260 161.2228 14.15824391347679
TITAN 4B R/B            
1 26474U 00047B   26062.46815287  .00005169  00000+0  32463-3 0  9992
2 26474  67.9883  58.0038 0037990  42.7873 317.6222 15.09488579391977
ENVISAT                 
1 27386U 02009A   26062.50324278  .00000168  00000+0  68346-4 0  9999
2 27386  98.3718  16.2483 0001336  84.6822  28.1006 14.39034205258284
IDEFIX & ARIANE 42P R/B 
1 27422U 02021B   26062.41281561  .00000369  00000+0  15662-3 0  9996
2 27422  98.5864   1.0943 0011217 201.2440 158.8279 14.31020865243123
AQUA                    
1 27424U 02022A   26062.53458469  .00001338  00000+0  27690-3 0  9996
2 27424  98.4164  29.7879 0000667  58.5213  53.8752 14.61958757267837
CZ-4B R/B               
1 27432U 02024C   26062.13256429  .00000055  00000+0  50918-4 0  9990
2 27432  98.8853 115.5719 0050770  42.6370 336.7091 14.14546187228317
MIDORI II (ADEOS-II)    
1 27597U 02056A   26062.50326727  .00000386  00000+0  16951-3 0  9992
2 27597  98.7759  20.9386 0001812  51.7611 308.3733 14.29279329209419
H-2A R/B                
1 27601U 02056E   26062.50664036  .00000345  00000+0  13532-3 0  9993
2 27601  98.3191  23.1080 0070114 179.0469 295.4990 14.33755888213222
CZ-4B R/B               
1 28059U 03049C   26062.46947453  .00000541  00000+0  13577-3 0  9993
2 28059  98.6873  57.1305 0047052 250.2914 109.3202 14.55013052185691
CZ-2C R/B               
1 28222U 04012C   26062.14730752  .00059078  00000+0  63130-3 0  9992
2 28222  97.7247 126.8234 0013304 336.0543  24.0094 15.63617877203257
SL-16 R/B               
1 28353U 04021B   26062.51716259 -.00000122  00000+0 -38549-4 0  9999
2 28353  70.9992 245.4467 0003725  21.9889 338.1393 14.14599678121968
CZ-4B R/B               
1 28415U 04035C   26062.10301204  .00010152  00000+0  35853-3 0  9994
2 28415  97.3507  96.4247 0031819 355.3873   4.7069 15.28920351178908
CZ-2C R/B               
1 28480U 04046B   26062.38522031  .00000156  00000+0  73073-4 0  9991
2 28480  98.1987 337.7613 0139498 173.0405 187.2758 14.26989701107609
ARIANE 5 R/B            
1 28499U 04049H   26062.43476561  .00001037  00000+0  12046-3 0  9997
2 28499  98.2616 230.6580 0084395  12.1868 348.1361 14.85252013144865
